{
  "type": "FeatureCollection",
  "features": [
    {
      "type": "Feature",
      "properties": {
        "norad_id": 25590,
        "name": "COSMOS 2361",
        "group": "musson",
        "lat": 24.87528293245847,
        "lon": -20.167014978845188,
        "alt_km": 1006.3447638947655,
        "timestamp": "2025-12-22T22:44:21.245263+00:00",
        "meta_object_name": "COSMOS 2361",
        "meta_object_id": "1998-076A",
        "meta_epoch": "2025-12-22T09:11:38.989824",
        "meta_mean_motion": 13.73218591,
        "meta_eccentricity": 0.00302232,
        "meta_inclination": 82.9343,
        "meta_ra_of_asc_node": 336.9536,
        "meta_arg_of_pericenter": 237.6688,
        "meta_mean_anomaly": 238.8499,
        "meta_ephemeris_type": 0,
        "meta_classification_type": "U",
        "meta_norad_cat_id": 25590,
        "meta_element_set_no": 999,
        "meta_rev_at_epoch": 35243,
        "meta_bstar": 4.4106891e-05,
        "meta_mean_motion_dot": 5.6e-07,
        "meta_mean_motion_ddot": 0,
        "tle_line1": "1 25590U 98076A   25356.38309016  .00000056  00000+0  44107-4 0  9992",
        "tle_line2": "2 25590  82.9343 336.9536 0030223 237.6688 238.8499 13.73218591352437"
      },
      "geometry": {
        "type": "Point",
        "coordinates": [
          -20.167014978845188,
          24.87528293245847
        ]
      }
    },
    {
      "type": "Feature",
      "properties": {
        "norad_id": 26818,
        "name": "COSMOS 2378",
        "group": "musson",
        "lat": 48.14674446947392,
        "lon": 164.18877558918788,
        "alt_km": 963.1651161316213,
        "timestamp": "2025-12-22T22:44:21.245283+00:00",
        "meta_object_name": "COSMOS 2378",
        "meta_object_id": "2001-023A",
        "meta_epoch": "2025-12-22T10:24:27.014400",
        "meta_mean_motion": 13.74142737,
        "meta_eccentricity": 0.00330042,
        "meta_inclination": 82.927,
        "meta_ra_of_asc_node": 352.5364,
        "meta_arg_of_pericenter": 177.6756,
        "meta_mean_anomaly": 293.4774,
        "meta_ephemeris_type": 0,
        "meta_classification_type": "U",
        "meta_norad_cat_id": 26818,
        "meta_element_set_no": 999,
        "meta_rev_at_epoch": 23056,
        "meta_bstar": 2.5768837e-05,
        "meta_mean_motion_dot": 4e-07,
        "meta_mean_motion_ddot": 0,
        "tle_line1": "1 26818U 01023A   25356.43364600  .00000040  00000+0  25769-4 0  9994",
        "tle_line2": "2 26818  82.9270 352.5364 0033004 177.6756 293.4774 13.74142737230563"
      },
      "geometry": {
        "type": "Point",
        "coordinates": [
          164.18877558918788,
          48.14674446947392
        ]
      }
    },
    {
      "type": "Feature",
      "properties": {
        "norad_id": 27436,
        "name": "COSMOS 2389",
        "group": "musson",
        "lat": 15.23824074329076,
        "lon": -58.64001784620726,
        "alt_km": 948.6512635198287,
        "timestamp": "2025-12-22T22:44:21.245296+00:00",
        "meta_object_name": "COSMOS 2389",
        "meta_object_id": "2002-026A",
        "meta_epoch": "2025-12-22T03:30:33.446016",
        "meta_mean_motion": 13.75155593,
        "meta_eccentricity": 0.00472394,
        "meta_inclination": 82.9511,
        "meta_ra_of_asc_node": 300.0214,
        "meta_arg_of_pericenter": 35.0971,
        "meta_mean_anomaly": 336.1418,
        "meta_ephemeris_type": 0,
        "meta_classification_type": "U",
        "meta_norad_cat_id": 27436,
        "meta_element_set_no": 999,
        "meta_rev_at_epoch": 18278,
        "meta_bstar": 4.9183719e-05,
        "meta_mean_motion_dot": 6.3e-07,
        "meta_mean_motion_ddot": 0,
        "tle_line1": "1 27436U 02026A   25356.14622044  .00000063  00000+0  49184-4 0  9994",
        "tle_line2": "2 27436  82.9511 300.0214 0047239  35.0971 336.1418 13.75155593182786"
      },
      "geometry": {
        "type": "Point",
        "coordinates": [
          -58.64001784620726,
          15.23824074329076
        ]
      }
    },
    {
      "type": "Feature",
      "properties": {
        "norad_id": 27818,
        "name": "COSMOS 2398",
        "group": "musson",
        "lat": -46.53053950007775,
        "lon": 92.67898885802006,
        "alt_km": 1016.8401148808243,
        "timestamp": "2025-12-22T22:44:21.245308+00:00",
        "meta_object_name": "COSMOS 2398",
        "meta_object_id": "2003-023A",
        "meta_epoch": "2025-12-22T06:26:14.999424",
        "meta_mean_motion": 13.72386723,
        "meta_eccentricity": 0.00327155,
        "meta_inclination": 82.9484,
        "meta_ra_of_asc_node": 265.6769,
        "meta_arg_of_pericenter": 86.4158,
        "meta_mean_anomaly": 26.3083,
        "meta_ephemeris_type": 0,
        "meta_classification_type": "U",
        "meta_norad_cat_id": 27818,
        "meta_element_set_no": 999,
        "meta_rev_at_epoch": 12947,
        "meta_bstar": 7.2320183e-05,
        "meta_mean_motion_dot": 8.2e-07,
        "meta_mean_motion_ddot": 0,
        "tle_line1": "1 27818U 03023A   25356.26822916  .00000082  00000+0  72320-4 0  9998",
        "tle_line2": "2 27818  82.9484 265.6769 0032715  86.4158  26.3083 13.72386723129471"
      },
      "geometry": {
        "type": "Point",
        "coordinates": [
          92.67898885802006,
          -46.53053950007775
        ]
      }
    },
    {
      "type": "Feature",
      "properties": {
        "norad_id": 28380,
        "name": "COSMOS 2407",
        "group": "musson",
        "lat": -26.451185342309287,
        "lon": 28.85962020132369,
        "alt_km": 1011.958791566628,
        "timestamp": "2025-12-22T22:44:21.245319+00:00",
        "meta_object_name": "COSMOS 2407",
        "meta_object_id": "2004-028A",
        "meta_epoch": "2025-12-22T13:18:15.732000",
        "meta_mean_motion": 13.76314742,
        "meta_eccentricity": 0.00398707,
        "meta_inclination": 82.9596,
        "meta_ra_of_asc_node": 205.6259,
        "meta_arg_of_pericenter": 28.0566,
        "meta_mean_anomaly": 31.7987,
        "meta_ephemeris_type": 0,
        "meta_classification_type": "U",
        "meta_norad_cat_id": 28380,
        "meta_element_set_no": 999,
        "meta_rev_at_epoch": 7558,
        "meta_bstar": 4.1101222e-05,
        "meta_mean_motion_dot": 5.6e-07,
        "meta_mean_motion_ddot": 0,
        "tle_line1": "1 28380U 04028A   25356.55434875  .00000056  00000+0  41101-4 0  9998",
        "tle_line2": "2 28380  82.9596 205.6259 0039870  28.0566  31.7987 13.76314742 75583"
      },
      "geometry": {
        "type": "Point",
        "coordinates": [
          28.85962020132369,
          -26.451185342309287
        ]
      }
    },
    {
      "type": "Feature",
      "properties": {
        "norad_id": 28521,
        "name": "COSMOS 2414",
        "group": "musson",
        "lat": 4.091127889452295,
        "lon": -3.5663106344487923,
        "alt_km": 925.203723513866,
        "timestamp": "2025-12-22T22:44:21.245331+00:00",
        "meta_object_name": "COSMOS 2414",
        "meta_object_id": "2005-002A",
        "meta_epoch": "2025-12-22T13:14:53.331360",
        "meta_mean_motion": 13.87904272,
        "meta_eccentricity": 0.0041348,
        "meta_inclination": 82.9488,
        "meta_ra_of_asc_node": 177.24,
        "meta_arg_of_pericenter": 112.4429,
        "meta_mean_anomaly": 248.1122,
        "meta_ephemeris_type": 0,
        "meta_classification_type": "U",
        "meta_norad_cat_id": 28521,
        "meta_element_set_no": 999,
        "meta_rev_at_epoch": 5931,
        "meta_bstar": 4.3318984e-05,
        "meta_mean_motion_dot": 6.8e-07,
        "meta_mean_motion_ddot": 0,
        "tle_line1": "1 28521U 05002A   25356.55200615  .00000068  00000+0  43319-4 0  9997",
        "tle_line2": "2 28521  82.9488 177.2400 0041348 112.4429 248.1122 13.87904272 59314"
      },
      "geometry": {
        "type": "Point",
        "coordinates": [
          -3.5663106344487923,
          4.091127889452295
        ]
      }
    },
    {
      "type": "Feature",
      "properties": {
        "norad_id": 32052,
        "name": "COSMOS 2429",
        "group": "musson",
        "lat": -21.12558650649127,
        "lon": 158.51205469573026,
        "alt_km": 1014.2541864420764,
        "timestamp": "2025-12-22T22:44:21.245342+00:00",
        "meta_object_name": "COSMOS 2429",
        "meta_object_id": "2007-038A",
        "meta_epoch": "2025-12-22T09:32:24.633312",
        "meta_mean_motion": 13.75150358,
        "meta_eccentricity": 0.00386809,
        "meta_inclination": 82.9806,
        "meta_ra_of_asc_node": 336.1888,
        "meta_arg_of_pericenter": 11.33,
        "meta_mean_anomaly": 348.8718,
        "meta_ephemeris_type": 0,
        "meta_classification_type": "U",
        "meta_norad_cat_id": 32052,
        "meta_element_set_no": 999,
        "meta_rev_at_epoch": 91735,
        "meta_bstar": 4.3704596e-05,
        "meta_mean_motion_dot": 5.7e-07,
        "meta_mean_motion_ddot": 0,
        "tle_line1": "1 32052U 07038A   25356.39750733  .00000057  00000+0  43705-4 0  9992",
        "tle_line2": "2 32052  82.9806 336.1888 0038680  11.3300 348.8718 13.75150358917359"
      },
      "geometry": {
        "type": "Point",
        "coordinates": [
          158.51205469573026,
          -21.12558650649127
        ]
      }
    },
    {
      "type": "Feature",
      "properties": {
        "norad_id": 35635,
        "name": "COSMOS 2454",
        "group": "musson",
        "lat": -59.65765363956594,
        "lon": 148.71179569910797,
        "alt_km": 940.183895899313,
        "timestamp": "2025-12-22T22:44:21.245353+00:00",
        "meta_object_name": "COSMOS 2454",
        "meta_object_id": "2009-039A",
        "meta_epoch": "2025-12-22T14:43:57.247392",
        "meta_mean_motion": 13.89929832,
        "meta_eccentricity": 0.00201338,
        "meta_inclination": 82.9556,
        "meta_ra_of_asc_node": 161.1597,
        "meta_arg_of_pericenter": 47.1723,
        "meta_mean_anomaly": 24.349,
        "meta_ephemeris_type": 0,
        "meta_classification_type": "U",
        "meta_norad_cat_id": 35635,
        "meta_element_set_no": 999,
        "meta_rev_at_epoch": 83287,
        "meta_bstar": 4.2635026e-05,
        "meta_mean_motion_dot": 6.8e-07,
        "meta_mean_motion_ddot": 0,
        "tle_line1": "1 35635U 09039A   25356.61385703  .00000068  00000+0  42635-4 0  9994",
        "tle_line2": "2 35635  82.9556 161.1597 0020133  47.1723  24.3490 13.89929832832876"
      },
      "geometry": {
        "type": "Point",
        "coordinates": [
          148.71179569910797,
          -59.65765363956594
        ]
      }
    },
    {
      "type": "Feature",
      "properties": {
        "norad_id": 36519,
        "name": "COSMOS 2463",
        "group": "musson",
        "lat": 29.219150849555238,
        "lon": 23.174038553002998,
        "alt_km": 1008.8933798837179,
        "timestamp": "2025-12-22T22:44:21.245363+00:00",
        "meta_object_name": "COSMOS 2463",
        "meta_object_id": "2010-017A",
        "meta_epoch": "2025-12-22T14:24:24.038208",
        "meta_mean_motion": 13.71649971,
        "meta_eccentricity": 0.00347728,
        "meta_inclination": 82.9604,
        "meta_ra_of_asc_node": 19.4662,
        "meta_arg_of_pericenter": 259.7039,
        "meta_mean_anomaly": 216.1133,
        "meta_ephemeris_type": 0,
        "meta_classification_type": "U",
        "meta_norad_cat_id": 36519,
        "meta_element_set_no": 999,
        "meta_rev_at_epoch": 78372,
        "meta_bstar": 3.4874667e-05,
        "meta_mean_motion_dot": 4.6e-07,
        "meta_mean_motion_ddot": 0,
        "tle_line1": "1 36519U 10017A   25356.60027822  .00000046  00000+0  34875-4 0  9991",
        "tle_line2": "2 36519  82.9604  19.4662 0034772 259.7039 216.1133 13.71649971783723"
      },
      "geometry": {
        "type": "Point",
        "coordinates": [
          23.174038553002998,
          29.219150849555238
        ]
      }
    }
  ]
}